[{"OBJECT_ID":"2010-070B","OBJECT_NAME":"KOREASAT 6","NORAD_CAT_ID":"37265","OBJECT_TYPE":"PAYLOAD","PERIOD":"1436.133","INCLINATION":"0.0112","APOGEE":"35794.380","PERIGEE":"35780.246","ECCENTRICITY":"0.0001676","MEAN_MOTION":"1.00269229","TLE_LINE1":"1 37265U 10070B   16238.90950943 -.00000390 +00000-0 +00000-0 0  9993","TLE_LINE2":"2 37265 000.0112 102.8919 0001676 078.4239 236.6741 01.00269229020857","LAUNCH_DATE":"2010-12-29","LAUNCH_SITE":"FRENCH GUIANA","OWNER":"SOUTH KOREA","ORBIT_TYPE":"Geosynchronous","OPERATIONAL_STATUS":"Operational","satInfo":{"lng":58.4195320893538,"lat":-2.287593304678123,"elevation":-10.796513860865018,"azimuth":256.5804679106462,"range":42918.407292559175,"height":35814.147204676316,"velocity":3.0734706073808873},"x":305,"y":-188},{"OBJECT_ID":"2011-001A","OBJECT_NAME":"ELEKTRO-L","NORAD_CAT_ID":"37344","OBJECT_TYPE":"PAYLOAD","PERIOD":"1444.098","INCLINATION":"1.8341","APOGEE":"36088.588","PERIGEE":"35797.562","ECCENTRICITY":"0.0034383","MEAN_MOTION":"0.99716182","TLE_LINE1":"1 37344U 11001A   16237.22270159 -.00000182  00000-0  00000+0 0  9992","TLE_LINE2":"2 37344   1.8341  79.1330 0034383  81.5917 243.9683  0.99716182 20522","LAUNCH_DATE":"2011-01-20","LAUNCH_SITE":"TYURATAM MISSILE AND SPACE COMPLEX","OWNER":"COMMONWEALTH OF INDEPENDENT STATES","ORBIT_TYPE":"Geosynchronous","OPERATIONAL_STATUS":"Operational","satInfo":{"lng":-177.14641220246057,"lat":3.1892578368914717,"elevation":-5.424843937293369,"azimuth":132.14641220246057,"range":42393.53484538968,"height":35890.919766236046,"velocity":3.072780353968948},"x":-18,"y":358},{"OBJECT_ID":"2011-016A","OBJECT_NAME":"INTELSAT NEW DAWN","NORAD_CAT_ID":"37392","OBJECT_TYPE":"PAYLOAD","PERIOD":"1436.083","INCLINATION":"0.0553","APOGEE":"35789.195","PERIGEE":"35783.469","ECCENTRICITY":"6.79e-05","MEAN_MOTION":"1.00272728","TLE_LINE1":"1 37392U 11016A   16239.00655895  .00000128  00000-0  00000+0 0  9992","TLE_LINE2":"2 37392   0.0553 266.5382 0000679 281.2325 182.0696  1.00272728 19591","LAUNCH_DATE":"2011-04-22","LAUNCH_SITE":"FRENCH GUIANA","OWNER":"INTERNATIONAL TELECOMMUNICATIONS SATELLITE ORGANIZATION (INTELSAT)","ORBIT_TYPE":"Geosynchronous","OPERATIONAL_STATUS":"Operational","satInfo":{"lng":86.91704539615145,"lat":1.7914557362176295,"elevation":-6.82429864715825,"azimuth":228.08295460384855,"range":42423.52042184484,"height":35765.3989630148,"velocity":3.0753761648913427},"x":357,"y":-19},{"OBJECT_ID":"2011-016B","OBJECT_NAME":"YAHSAT 1A","NORAD_CAT_ID":"37393","OBJECT_TYPE":"PAYLOAD","PERIOD":"1436.098","INCLINATION":"0.0161","APOGEE":"35788.510","PERIGEE":"35784.757","ECCENTRICITY":"4.45e-05","MEAN_MOTION":"1.00271654","TLE_LINE1":"1 37393U 11016B   16239.12212697  .00000073  00000-0  00000+0 0  9994","TLE_LINE2":"2 37393   0.0161 160.3284 0000445 359.4888 271.4379  1.00271654 19646","LAUNCH_DATE":"2011-04-22","LAUNCH_SITE":"FRENCH GUIANA","OWNER":"UNITED ARAB EMIRATES","ORBIT_TYPE":"Geosynchronous","OPERATIONAL_STATUS":"Operational","satInfo":{"lng":97.09506810003226,"lat":-0.8289367392558542,"elevation":-9.383056098451,"azimuth":217.90493189996772,"range":42730.19016028919,"height":35784.749180380524,"velocity":3.07470065382933},"x":355,"y":44},{"OBJECT_ID":"2011-021A","OBJECT_NAME":"TELSTAR 14R","NORAD_CAT_ID":"37602","OBJECT_TYPE":"PAYLOAD","PERIOD":"1436.115","INCLINATION":"0.053","APOGEE":"35791.843","PERIGEE":"35782.078","ECCENTRICITY":"0.0001158","MEAN_MOTION":"1.00270487","TLE_LINE1":"1 37602U 11021A   16239.09239381 -.00000308  00000-0  00000+0 0  9990","TLE_LINE2":"2 37602   0.0530 296.1348 0001158 342.6781  26.1940  1.00270487 19862","LAUNCH_DATE":"2011-05-20","LAUNCH_SITE":"TYURATAM MISSILE AND SPACE COMPLEX","OWNER":"CANADA","ORBIT_TYPE":"Geosynchronous","OPERATIONAL_STATUS":"Operational","satInfo":{"lng":-75.35084079861801,"lat":-1.892263205334758,"elevation":-10.415302280375224,"azimuth":30.350840798617952,"range":42860.6117733111,"height":35799.24679813966,"velocity":3.074254245757915},"x":-346,"y":-91},{"OBJECT_ID":"2011-022A","OBJECT_NAME":"GSAT 8","NORAD_CAT_ID":"37605","OBJECT_TYPE":"PAYLOAD","PERIOD":"1436.081","INCLINATION":"0.065","APOGEE":"35806.085","PERIGEE":"35766.510","ECCENTRICITY":"0.0004693","MEAN_MOTION":"1.00272852","TLE_LINE1":"1 37605U 11022A   16239.11505694  .00000057  00000-0  00000+0 0  9990","TLE_LINE2":"2 37605   0.0650 282.6497 0004693 332.6912 175.9037  1.00272852 19324","LAUNCH_DATE":"2011-05-20","LAUNCH_SITE":"FRENCH GUIANA","OWNER":"INDIA","ORBIT_TYPE":"Geosynchronous","OPERATIONAL_STATUS":"Operational","satInfo":{"lng":95.0301225256449,"lat":1.9464515456815414,"elevation":-6.666752366490208,"azimuth":219.96987747435512,"range":42433.0123335259,"height":35792.258502550496,"velocity":3.074220024688112},"x":357,"y":31},{"OBJECT_ID":"2011-022B","OBJECT_NAME":"ST 2","NORAD_CAT_ID":"37606","OBJECT_TYPE":"PAYLOAD","PERIOD":"1436.093","INCLINATION":"0.0108","APOGEE":"35791.473","PERIGEE":"35781.581","ECCENTRICITY":"0.0001173","MEAN_MOTION":"1.00272034","TLE_LINE1":"1 37606U 11022B   16239.01477856 -.00000239  00000-0  00000+0 0  9991","TLE_LINE2":"2 37606   0.0108 124.9902 0001173  40.6701 262.3570  1.00272034 19330","LAUNCH_DATE":"2011-05-20","LAUNCH_SITE":"FRENCH GUIANA","OWNER":"SINGAPORE/TAIWAN","ORBIT_TYPE":"Geosynchronous","OPERATIONAL_STATUS":"Operational","satInfo":{"lng":62.473689732506,"lat":-1.7972810229151943,"elevation":-10.324739882415008,"azimuth":252.52631026749395,"range":42841.325482525426,"height":35790.21437230056,"velocity":3.074385994322274},"x":317,"y":-165},{"OBJECT_ID":"2011-026A","OBJECT_NAME":"CHINASAT 10","NORAD_CAT_ID":"37677","OBJECT_TYPE":"PAYLOAD","PERIOD":"1436.103","INCLINATION":"0.0062","APOGEE":"35804.076","PERIGEE":"35769.383","ECCENTRICITY":"0.0004114","MEAN_MOTION":"1.0027131","TLE_LINE1":"1 37677U 11026A   16238.98346394 -.00000380  00000-0  00000+0 0  9997","TLE_LINE2":"2 37677   0.0062 129.8536 0004114 115.9371 193.4530  1.00271310 19056","LAUNCH_DATE":"2011-06-20","LAUNCH_SITE":"Xichang Space Center, China","OWNER":"PEOPLES REPUBLIC OF CHINA","ORBIT_TYPE":"Geosynchronous","OPERATIONAL_STATUS":"Operational","satInfo":{"lng":50.59606331132769,"lat":-1.3866282031794783,"elevation":-9.923777011806681,"azimuth":264.40393668867233,"range":42803.64391828835,"height":35797.41221311878,"velocity":3.07444356779641},"x":277,"y":-227},{"OBJECT_ID":"2011-032A","OBJECT_NAME":"TIANLIAN 1-02","NORAD_CAT_ID":"37737","OBJECT_TYPE":"PAYLOAD","PERIOD":"1436.118","INCLINATION":"1.9883","APOGEE":"35809.229","PERIGEE":"35764.795","ECCENTRICITY":"0.0005269","MEAN_MOTION":"1.00270303","TLE_LINE1":"1 37737U 11032A   16238.71354186  .00000002  00000-0  00000+0 0  9990","TLE_LINE2":"2 37737   1.9883  78.8757 0005269 135.0649 194.1131  1.00270303 18791","LAUNCH_DATE":"2011-07-11","LAUNCH_SITE":"Xichang Space Center, China","OWNER":"PEOPLES REPUBLIC OF CHINA","ORBIT_TYPE":"Geosynchronous","OPERATIONAL_STATUS":"Operational","satInfo":{"lng":73.76326368591633,"lat":-3.598206571998537,"elevation":-12.076813189163476,"azimuth":241.23673631408366,"range":43013.50385612882,"height":35766.38726240993,"velocity":3.0748803430541045},"x":343,"y":-100},{"OBJECT_ID":"2011-034A","OBJECT_NAME":"GSAT 12","NORAD_CAT_ID":"37746","OBJECT_TYPE":"PAYLOAD","PERIOD":"1436.098","INCLINATION":"0.0089","APOGEE":"35809.577","PERIGEE":"35763.660","ECCENTRICITY":"0.0005445","MEAN_MOTION":"1.00271706","TLE_LINE1":"1 37746U 11034A   16238.86923847 -.00000193 +00000-0 +00000-0 0  9997","TLE_LINE2":"2 37746 000.0089 124.3097 0005445 344.4899 261.6664 01.00271706007586","LAUNCH_DATE":"2011-07-15","LAUNCH_SITE":"SIRHARIKOTA","OWNER":"INDIA","ORBIT_TYPE":"Geosynchronous","OPERATIONAL_STATUS":"Operational","satInfo":{"lng":67.6287368488047,"lat":-1.887759224169481,"elevation":-10.410915979735103,"azimuth":247.37126315119528,"range":42860.15816393667,"height":35799.28449779788,"velocity":3.07371583414859},"x":331,"y":-136},{"OBJECT_ID":"2011-035A","OBJECT_NAME":"SES 3","NORAD_CAT_ID":"37748","OBJECT_TYPE":"PAYLOAD","PERIOD":"1436.088","INCLINATION":"0.0531","APOGEE":"35796.695","PERIGEE":"35776.169","ECCENTRICITY":"0.0002434","MEAN_MOTION":"1.00272371","TLE_LINE1":"1 37748U 11035A   16239.46533172 -.00000131  00000-0  00000+0 0  9996","TLE_LINE2":"2 37748   0.0531 294.3698 0002434 230.7643 234.5177  1.00272371 18785","LAUNCH_DATE":"2011-07-15","LAUNCH_SITE":"TYURATAM MISSILE AND SPACE COMPLEX","OWNER":"UNITED STATES OF AMERICA","ORBIT_TYPE":"Geosynchronous","OPERATIONAL_STATUS":"Operational","satInfo":{"lng":-104.76665172970796,"lat":-2.118654721604378,"elevation":-10.639695984713812,"azimuth":59.76665172970795,"range":42863.51823697322,"height":35777.24519426538,"velocity":3.0753952554737576},"x":-346,"y":91},{"OBJECT_ID":"2011-035B","OBJECT_NAME":"KAZSAT 2","NORAD_CAT_ID":"37749","OBJECT_TYPE":"PAYLOAD","PERIOD":"1436.096","INCLINATION":"0.0116","APOGEE":"35787.372","PERIGEE":"35785.787","ECCENTRICITY":"1.88e-05","MEAN_MOTION":"1.00271845","TLE_LINE1":"1 37749U 11035B   16239.04700255 -.00000226  00000-0  00000+0 0  9994","TLE_LINE2":"2 37749   0.0116 140.8038 0000188  21.4521 275.8914  1.00271845 18650","LAUNCH_DATE":"2011-07-15","LAUNCH_SITE":"TYURATAM MISSILE AND SPACE COMPLEX","OWNER":"KAZAKHSTAN","ORBIT_TYPE":"Geosynchronous","OPERATIONAL_STATUS":"Operational","satInfo":{"lng":64.04900273129074,"lat":-1.2155103995389855,"elevation":-9.759441033746947,"azimuth":250.9509972687092,"range":42773.679154406964,"height":35786.005763389316,"velocity":3.0746851059717906},"x":322,"y":-157}]